NORAD_CAT_ID,OBJECT_NAME,OBJECT_TYPE,EPOCH,MEAN_MOTION,ECCENTRICITY,INCLINATION,RA_OF_ASC_NODE,ARG_OF_PERICENTER,MEAN_ANOMALY,BSTAR,MEAN_MOTION_DOT,MEAN_MOTION_DDOT,TLE_LINE0,TLE_LINE1,TLE_LINE2,SEMIMAJOR_AXIS,PERIOD,APOGEE,PERIGEE,DECAYED
49741.0,STARLINK-3244,PAYLOAD,2022-07-03 21:02:12,15.08846827,0.0002671,53.2166,66.2256,69.0434,291.0844,4.9065e-05,4.93e-06,0.0,0 STARLINK-3244,1 49741U 21115T   22184.87653284  .00000493  00000-0  49065-4 0  9999,2 49741  53.2166  66.2256 0002671  69.0434 291.0844 15.08846827 32517,6917.86,95.437,541.572,537.877,0.0
49741.0,STARLINK-3244,PAYLOAD,2022-07-04 01:48:22,15.08841037,0.0002672,53.2165,65.3335,68.7746,291.3532,3.8313e-05,3.21e-06,0.0,0 STARLINK-3244,1 49741U 21115T   22185.07525629  .00000321  00000-0  38313-4 0  9997,2 49741  53.2165  65.3335 0002672  68.7746 291.3532 15.08841037 33658,6917.877,95.437,541.591,537.894,0.0
49741.0,STARLINK-3244,PAYLOAD,2022-07-04 20:53:00,15.08836489,0.0002719,53.216,61.765,66.0743,294.0534,-7.649e-05,-1.506e-05,0.0,0 STARLINK-3244,1 49741U 21115T   22185.87014436 -.00001506  00000-0 -76490-4 0  9990,2 49741  53.2160  61.7650 0002719  66.0743 294.0534 15.08836489 33773,6917.891,95.438,541.637,537.875,0.0
49741.0,STARLINK-3244,PAYLOAD,2022-07-04 22:28:23,15.08839942,0.0002633,53.2164,61.4681,70.2079,289.9196,-5.014100000000001e-05,-1.086e-05,0.0,0 STARLINK-3244,1 49741U 21115T   22185.93638115 -.00001086  00000-0 -50141-4 0  9991,2 49741  53.2164  61.4681 0002633  70.2079 289.9196 15.08839942 32674,6917.880999999999,95.438,541.567,537.924,0.0
49741.0,STARLINK-3244,PAYLOAD,2022-07-05 01:39:09,15.08842484,0.0002655,53.2164,60.8736,70.4136,289.7142,-4.4523e-05,-9.97e-06,0.0,0 STARLINK-3244,1 49741U 21115T   22186.06885927 -.00000997  00000-0 -44523-4 0  9998,2 49741  53.2164  60.8736 0002655  70.4136 289.7142 15.08842484 33808,6917.873000000001,95.437,541.5740000000002,537.901,0.0
49741.0,STARLINK-3244,PAYLOAD,2022-07-05 20:43:46,15.08846527,0.0002524,53.2162,57.3044,68.8216,291.3046,4.3632e-05,4.06e-06,0.0,0 STARLINK-3244,1 49741U 21115T   22186.86373098  .00000406  00000-0  43632-4 0  9990,2 49741  53.2162  57.3044 0002524  68.8216 291.3046 15.08846527 33921,6917.86,95.437,541.472,537.979,0.0
49741.0,STARLINK-3244,PAYLOAD,2022-07-06 03:05:19,15.0883406,0.0002524,53.2165,56.1152,70.7881,289.3384,-1.8289e-05,-5.79e-06,0.0,0 STARLINK-3244,1 49741U 21115T   22187.12870148 -.00000579  00000-0 -18289-4 0  9991,2 49741  53.2165  56.1152 0002524  70.7881 289.3384 15.08834060 33966,6917.899,95.438,541.51,538.0169999999998,0.0
49741.0,STARLINK-3244,PAYLOAD,2022-07-06 07:51:29,15.0883617,0.0002354,53.2164,55.2224,72.6009,287.524,-4.4809e-06,-3.6000000000000007e-06,0.0,0 STARLINK-3244,1 49741U 21115T   22187.32741937 -.00000360  00000-0 -44809-5 0  9992,2 49741  53.2164  55.2224 0002354  72.6009 287.5240 15.08836170 32884,6917.892,95.438,541.386,538.129,0.0
49741.0,STARLINK-3244,PAYLOAD,2022-07-06 18:59:12,15.08826218,0.0002445,53.2166,53.1417,74.3223,285.8039,-4.2509e-05,-9.65e-06,0.0,0 STARLINK-3244,1 49741U 21115T   22187.79111188 -.00000965  00000-0 -42509-4 0  9997,2 49741  53.2166  53.1417 0002445  74.3223 285.8039 15.08826218 34066,6917.9230000000025,95.438,541.479,538.096,0.0
49741.0,STARLINK-3244,PAYLOAD,2022-07-07 02:56:08,15.08824713,0.0002448,53.2167,51.6547,71.9464,288.1795,-5.4588e-05,-1.157e-05,0.0,0 STARLINK-3244,1 49741U 21115T   22188.12231600 -.00001157  00000-0 -54588-4 0  9991,2 49741  53.2167  51.6547 0002448  71.9464 288.1795 15.08824713 33003,6917.927,95.439,541.486,538.099,0.0
49741.0,STARLINK-3244,PAYLOAD,2022-07-07 20:25:22,15.08833376,0.0002474,53.2166,48.3841,72.4886,287.6377,-1.6847e-06,-3.15e-06,0.0,0 STARLINK-3244,1 49741U 21115T   22188.85095421 -.00000315  00000-0 -16847-5 0  9992,2 49741  53.2166  48.3841 0002474  72.4886 287.6377 15.08833376 34225,6917.901,95.438,541.477,538.054,0.0
49741.0,STARLINK-3244,PAYLOAD,2022-07-08 07:33:03,15.08840023,0.0002367,53.2166,46.3024,72.54,287.5851,0.00014239,1.979e-05,0.0,0 STARLINK-3244,1 49741U 21115T   22189.31462777  .00001979  00000-0  14239-3 0  9992,2 49741  53.2166  46.3024 0002367  72.5400 287.5851 15.08840023 34290,6917.88,95.438,541.383,538.1080000000002,0.0
49741.0,STARLINK-3244,PAYLOAD,2022-07-08 20:16:08,15.08848842,0.0002335,53.2165,43.9229,73.1641,286.9607,0.00030071,4.502e-05,0.0,0 STARLINK-3244,1 49741U 21115T   22189.84454018  .00004502  00000-0  30071-3 0  9996,2 49741  53.2165  43.9229 0002335  73.1641 286.9607 15.08848842 33263,6917.853,95.437,541.3340000000002,538.1030000000002,0.0
49741.0,STARLINK-3244,PAYLOAD,2022-07-09 07:23:50,15.08864147,0.0002361,53.2157,41.8413,72.7384,287.3867,0.00050034,7.689e-05,0.0,0 STARLINK-3244,1 49741U 21115T   22190.30821897  .00007689  00000-0  50034-3 0  9992,2 49741  53.2157  41.8413 0002361  72.7384 287.3867 15.08864147 33331,6917.807,95.436,541.305,538.038,0.0
49741.0,STARLINK-3244,PAYLOAD,2022-07-09 16:56:08,15.08847391,0.0002127,53.2155,40.0574,74.9491,285.1737,-0.00015532,-2.7600000000000014e-05,0.0,0 STARLINK-3244,1 49741U 21115T   22190.70565915 -.00002760  00000-0 -15532-3 0  9993,2 49741  53.2155  40.0574 0002127  74.9491 285.1737 15.08847391 33391,6917.858,95.437,541.194,538.251,0.0
49741.0,STARLINK-3244,PAYLOAD,2022-07-10 00:53:05,15.08813872,0.0001652,53.2154,38.5711,72.6641,287.4532,-0.00088141,-0.00014278,0.0,0 STARLINK-3244,1 49741U 21115T   22191.03686639 -.00014278  00000-0 -88141-3 0  9990,2 49741  53.2154  38.5711 0001652  72.6641 287.4532 15.08813872 34553,6917.96,95.439,540.9680000000002,538.682,0.0
49741.0,STARLINK-3244,PAYLOAD,2022-07-10 07:14:38,15.08800086,0.0001745,53.2154,37.3812,71.58,288.5382,-0.00063816,-0.00010419,0.0,0 STARLINK-3244,1 49741U 21115T   22191.30183636 -.00010419  00000-0 -63816-3 0  9994,2 49741  53.2154  37.3812 0001745  71.5800 288.5382 15.08800086 33489,6918.002,95.44,541.075,538.66,0.0
49741.0,STARLINK-3244,PAYLOAD,2022-07-10 18:22:21,15.08816644,0.000187,53.2154,35.2991,67.92,292.199,0.00094372,0.00014754,0.0,0 STARLINK-3244,1 49741U 21115T   22191.76552691  .00014754  00000-0  94372-3 0  9990,2 49741  53.2154  35.2991 0001870  67.9200 292.1990 15.08816644 34660,6917.9519999999975,95.439,541.11,538.523,0.0
49741.0,STARLINK-3244,PAYLOAD,2022-07-10 19:57:44,15.08815753,0.0001911,53.2157,35.001999999999995,71.8033,288.3168,0.0010193,0.00015961,0.0,0 STARLINK-3244,1 49741U 21115T   22191.83176856  .00015961  00000-0  10193-2 0  9992,2 49741  53.2157  35.0020 0001911  71.8033 288.3168 15.08815753 33560,6917.955,95.439,541.1419999999998,538.497,0.0
49741.0,STARLINK-3244,PAYLOAD,2022-07-11 07:05:27,15.08829736,0.0001779,53.2157,32.9202,66.9023,293.2156,0.0010822,0.00016972,0.0,0 STARLINK-3244,1 49741U 21115T   22192.29545417  .00016972  00000-0  10822-2 0  9998,2 49741  53.2157  32.9202 0001779  66.9023 293.2156 15.08829736 33630,6917.9119999999975,95.438,541.007,538.5459999999998,0.0
49741.0,STARLINK-3244,PAYLOAD,2022-07-11 19:48:32,15.08847284,0.0001797,53.2157,30.5414,66.9421,293.1761,0.0011189,0.00017568,0.0,0 STARLINK-3244,1 49741U 21115T   22192.82537535  .00017568  00000-0  11189-2 0  9998,2 49741  53.2157  30.5414 0001797  66.9421 293.1761 15.08847284 34822,6917.858,95.437,540.966,538.48,0.0
49741.0,STARLINK-3244,PAYLOAD,2022-07-12 13:17:46,15.08866505,0.0001848,53.2158,27.2697,69.4896,290.6295,0.0010786,0.00016932,0.0,0 STARLINK-3244,1 49741U 21115T   22193.55400855  .00016932  00000-0  10786-2 0  9999,2 49741  53.2158  27.2697 0001848  69.4896 290.6295 15.08866505 33820,6917.799,95.436,540.943,538.386,0.0
49741.0,STARLINK-3244,PAYLOAD,2022-07-12 19:39:18,15.08876963,0.0001842,53.2159,26.0807,71.982,288.1373,0.0011454,0.00018007,0.0,0 STARLINK-3244,1 49741U 21115T   22193.81896244  .00018007  00000-0  11454-2 0  9997,2 49741  53.2159  26.0807 0001842  71.9820 288.1373 15.08876963 33862,6917.767,95.435,540.9069999999998,538.3580000000002,0.0
49741.0,STARLINK-3244,PAYLOAD,2022-07-12 22:50:04,15.08880288,0.0001843,53.216,25.4856,68.8945,291.2244,0.0010968,0.0001723,0.0,0 STARLINK-3244,1 49741U 21115T   22193.95143926  .00017230  00000-0  10968-2 0  9990,2 49741  53.2160  25.4856 0001843  68.8945 291.2244 15.08880288 34997,6917.757,95.435,540.8969999999998,538.347,0.0
49741.0,STARLINK-3244,PAYLOAD,2022-07-13 19:30:04,15.08868427,0.0001769,53.2159,21.6195,75.0627,285.0561,0.00046826,7.178e-05,0.0,0 STARLINK-3244,1 49741U 21115T   22194.81254925  .00007178  00000-0  46826-3 0  9991,2 49741  53.2159  21.6195 0001769  75.0627 285.0561 15.08868427 35123,6917.794,95.436,540.882,538.435,0.0
49741.0,STARLINK-3244,PAYLOAD,2022-07-14 05:02:23,15.08836187,0.0001691,53.216,19.835,69.8139,290.3035,3.7667e-06,-2.28e-06,0.0,0 STARLINK-3244,1 49741U 21115T   22195.20999145 -.00000228  00000-0  37667-5 0  9990,2 49741  53.2160  19.8350 0001691  69.8139 290.3035 15.08836187 35189,6917.892,95.438,540.927,538.587,0.0
49741.0,STARLINK-3244,PAYLOAD,2022-07-14 19:20:52,15.08825068,0.0001634,53.2161,17.1588,68.6175,291.4992,-0.00011986,-2.194e-05,0.0,0 STARLINK-3244,1 49741U 21115T   22195.80615973 -.00002194  00000-0 -11986-3 0  9999,2 49741  53.2161  17.1588 0001634  68.6175 291.4992 15.08825068 35278,6917.926,95.438,540.9209999999998,538.661,0.0
49741.0,STARLINK-3244,PAYLOAD,2022-07-15 11:14:43,15.08842813,0.0001671,53.216,14.185,64.6431,295.4734,-0.00037468,-6.247e-05,0.0,0 STARLINK-3244,1 49741U 21115T   22196.46855708 -.00006247  00000-0 -37468-3 0  9990,2 49741  53.2160  14.1850 0001671  64.6431 295.4734 15.08842813 35374,6917.871999999999,95.437,540.893,538.581,0.0
49741.0,STARLINK-3244,PAYLOAD,2022-07-15 20:47:02,15.08836574,0.000161,53.2163,12.4012,69.1061,291.0104,0.0001984,2.871e-05,0.0,0 STARLINK-3244,1 49741U 21115T   22196.86600423  .00002871  00000-0  19840-3 0  9997,2 49741  53.2163  12.4012 0001610  69.1061 291.0104 15.08836574 34324,6917.891,95.438,540.87,538.6419999999998,0.0
